{"type": "FeatureCollection", "features": [{"type": "Feature", "properties": {"norad_id": 24946, "name": "IRIDIUM 33", "group": "iridium-33-debris", "lat": -46.931032185691855, "lon": 60.06008898021234, "alt_km": 786.6587093113612, "timestamp": "2025-12-22T22:44:21.363196+00:00", "meta": {"OBJECT_NAME": "IRIDIUM 33", "OBJECT_ID": "1997-051C", "EPOCH": "2025-12-22T04:33:00.643392", "MEAN_MOTION": 14.35043647, "ECCENTRICITY": 0.00081627, "INCLINATION": 86.3861, "RA_OF_ASC_NODE": 64.2549, "ARG_OF_PERICENTER": 169.1562, "MEAN_ANOMALY": 190.9812, "EPHEMERIS_TYPE": 0, "CLASSIFICATION_TYPE": "U", "NORAD_CAT_ID": 24946, "ELEMENT_SET_NO": 999, "REV_AT_EPOCH": 47970, "BSTAR": 0.00010632795, "MEAN_MOTION_DOT": 3.23e-06, "MEAN_MOTION_DDOT": 0}, "tle": {"line1": "1 24946U 97051C   25356.18959078  .00000323  00000+0  10633-3 0  9998", "line2": "2 24946  86.3861  64.2549 0008162 169.1562 190.9812 14.35043647479700"}}, "geometry": {"type": "Point", "coordinates": [60.06008898021234, -46.931032185691855]}}, {"type": "Feature", "properties": {"norad_id": 33773, "name": "IRIDIUM 33 DEB", "group": "iridium-33-debris", "lat": -32.045570899821776, "lon": -121.4777469271253, "alt_km": 754.7061057883284, "timestamp": "2025-12-22T22:44:21.363240+00:00", "meta": {"OBJECT_NAME": "IRIDIUM 33 DEB", "OBJECT_ID": "1997-051L", "EPOCH": "2025-12-22T10:06:48.994560", "MEAN_MOTION": 14.43276643, "ECCENTRICITY": 0.00131532, "INCLINATION": 86.4001, "RA_OF_ASC_NODE": 56.4867, "ARG_OF_PERICENTER": 118.4701, "MEAN_ANOMALY": 241.7827, "EPHEMERIS_TYPE": 0, "CLASSIFICATION_TYPE": "U", "NORAD_CAT_ID": 33773, "ELEMENT_SET_NO": 999, "REV_AT_EPOCH": 88487, "BSTAR": 0.00027711312, "MEAN_MOTION_DOT": 9.53e-06, "MEAN_MOTION_DDOT": 0}, "tle": {"line1": "1 33773U 97051L   25356.42140040  .00000953  00000+0  27711-3 0  9998", "line2": "2 33773  86.4001  56.4867 0013153 118.4701 241.7827 14.43276643884871"}}, "geometry": {"type": "Point", "coordinates": [-121.4777469271253, -32.045570899821776]}}, {"type": "Feature", "properties": {"norad_id": 33775, "name": "IRIDIUM 33 DEB", "group": "iridium-33-debris", "lat": -49.8627296205169, "lon": -130.4781171755687, "alt_km": 763.5075124108889, "timestamp": "2025-12-22T22:44:21.363256+00:00", "meta": {"OBJECT_NAME": "IRIDIUM 33 DEB", "OBJECT_ID": "1997-051N", "EPOCH": "2025-12-22T10:17:36.055392", "MEAN_MOTION": 14.41488239, "ECCENTRICITY": 0.0015141, "INCLINATION": 86.3626, "RA_OF_ASC_NODE": 45.4167, "ARG_OF_PERICENTER": 125.7241, "MEAN_ANOMALY": 294.6399, "EPHEMERIS_TYPE": 0, "CLASSIFICATION_TYPE": "U", "NORAD_CAT_ID": 33775, "ELEMENT_SET_NO": 999, "REV_AT_EPOCH": 88280, "BSTAR": 0.00029191052, "MEAN_MOTION_DOT": 9.68e-06, "MEAN_MOTION_DDOT": 0}, "tle": {"line1": "1 33775U 97051N   25356.42888953  .00000968  00000+0  29191-3 0  9992", "line2": "2 33775  86.3626  45.4167 0015141 125.7241 294.6399 14.41488239882801"}}, "geometry": {"type": "Point", "coordinates": [-130.4781171755687, -49.8627296205169]}}, {"type": "Feature", "properties": {"norad_id": 33776, "name": "IRIDIUM 33 DEB", "group": "iridium-33-debris", "lat": -19.3742259224531, "lon": 75.22173331667794, "alt_km": 780.4746308846779, "timestamp": "2025-12-22T22:44:21.363271+00:00", "meta": {"OBJECT_NAME": "IRIDIUM 33 DEB", "OBJECT_ID": "1997-051P", "EPOCH": "2025-12-22T11:11:21.119424", "MEAN_MOTION": 14.38251763, "ECCENTRICITY": 0.00154129, "INCLINATION": 86.4033, "RA_OF_ASC_NODE": 76.6912, "ARG_OF_PERICENTER": 159.4139, "MEAN_ANOMALY": 211.0921, "EPHEMERIS_TYPE": 0, "CLASSIFICATION_TYPE": "U", "NORAD_CAT_ID": 33776, "ELEMENT_SET_NO": 999, "REV_AT_EPOCH": 88222, "BSTAR": 0.00026667311, "MEAN_MOTION_DOT": 8.31e-06, "MEAN_MOTION_DDOT": 0}, "tle": {"line1": "1 33776U 97051P   25356.46621666  .00000831  00000+0  26667-3 0  9997", "line2": "2 33776  86.4033  76.6912 0015412 159.4139 211.0921 14.38251763882226"}}, "geometry": {"type": "Point", "coordinates": [75.22173331667794, -19.3742259224531]}}, {"type": "Feature", "properties": {"norad_id": 33777, "name": "IRIDIUM 33 DEB", "group": "iridium-33-debris", "lat": 46.846067048592104, "lon": 34.63723216363378, "alt_km": 707.0833140983441, "timestamp": "2025-12-22T22:44:21.363284+00:00", "meta": {"OBJECT_NAME": "IRIDIUM 33 DEB", "OBJECT_ID": "1997-051Q", "EPOCH": "2025-12-22T09:19:32.657952", "MEAN_MOTION": 14.55676863, "ECCENTRICITY": 0.00060003, "INCLINATION": 86.3773, "RA_OF_ASC_NODE": 31.0057, "ARG_OF_PERICENTER": 207.4263, "MEAN_ANOMALY": 152.6629, "EPHEMERIS_TYPE": 0, "CLASSIFICATION_TYPE": "U", "NORAD_CAT_ID": 33777, "ELEMENT_SET_NO": 999, "REV_AT_EPOCH": 88674, "BSTAR": 0.00079019042, "MEAN_MOTION_DOT": 3.472e-05, "MEAN_MOTION_DDOT": 0}, "tle": {"line1": "1 33777U 97051Q   25356.38857243  .00003472  00000+0  79019-3 0  9994", "line2": "2 33777  86.3773  31.0057 0006000 207.4263 152.6629 14.55676863886744"}}, "geometry": {"type": "Point", "coordinates": [34.63723216363378, 46.846067048592104]}}, {"type": "Feature", "properties": {"norad_id": 33850, "name": "IRIDIUM 33 DEB", "group": "iridium-33-debris", "lat": -55.60877473810823, "lon": -148.8455254461456, "alt_km": 760.9412644385457, "timestamp": "2025-12-22T22:44:21.363297+00:00", "meta": {"OBJECT_NAME": "IRIDIUM 33 DEB", "OBJECT_ID": "1997-051T", "EPOCH": "2025-12-22T12:27:04.750272", "MEAN_MOTION": 14.42169167, "ECCENTRICITY": 0.00131498, "INCLINATION": 86.3408, "RA_OF_ASC_NODE": 25.9743, "ARG_OF_PERICENTER": 131.7999, "MEAN_ANOMALY": 39.6329, "EPHEMERIS_TYPE": 0, "CLASSIFICATION_TYPE": "U", "NORAD_CAT_ID": 33850, "ELEMENT_SET_NO": 999, "REV_AT_EPOCH": 88293, "BSTAR": 0.00036389057, "MEAN_MOTION_DOT": 1.218e-05, "MEAN_MOTION_DDOT": 0}, "tle": {"line1": "1 33850U 97051T   25356.51880498  .00001218  00000+0  36389-3 0  9998", "line2": "2 33850  86.3408  25.9743 0013149 131.7999  39.6329 14.42169167882930"}}, "geometry": {"type": "Point", "coordinates": [-148.8455254461456, -55.60877473810823]}}, {"type": "Feature", "properties": {"norad_id": 33853, "name": "IRIDIUM 33 DEB", "group": "iridium-33-debris", "lat": 63.70211615270837, "lon": 157.19535967642818, "alt_km": 883.3117396255084, "timestamp": "2025-12-22T22:44:21.363309+00:00", "meta": {"OBJECT_NAME": "IRIDIUM 33 DEB", "OBJECT_ID": "1997-051W", "EPOCH": "2025-12-22T10:53:52.030752", "MEAN_MOTION": 13.99110392, "ECCENTRICITY": 0.02074764, "INCLINATION": 86.0002, "RA_OF_ASC_NODE": 345.5509, "ARG_OF_PERICENTER": 205.8505, "MEAN_ANOMALY": 308.872, "EPHEMERIS_TYPE": 0, "CLASSIFICATION_TYPE": "U", "NORAD_CAT_ID": 33853, "ELEMENT_SET_NO": 999, "REV_AT_EPOCH": 85481, "BSTAR": 0.001219662, "MEAN_MOTION_DOT": 2.14e-05, "MEAN_MOTION_DDOT": 0}, "tle": {"line1": "1 33853U 97051W   25356.45407443  .00002140  00000+0  12197-2 0  9994", "line2": "2 33853  86.0002 345.5509 0207476 205.8505 308.8720 13.99110392854814"}}, "geometry": {"type": "Point", "coordinates": [157.19535967642818, 63.70211615270837]}}, {"type": "Feature", "properties": {"norad_id": 33860, "name": "IRIDIUM 33 DEB", "group": "iridium-33-debris", "lat": 16.57662281083123, "lon": 23.798235823057134, "alt_km": 667.483713874778, "timestamp": "2025-12-22T22:44:21.363321+00:00", "meta": {"OBJECT_NAME": "IRIDIUM 33 DEB", "OBJECT_ID": "1997-051AD", "EPOCH": "2025-12-22T09:52:40.181952", "MEAN_MOTION": 14.67476577, "ECCENTRICITY": 0.00062656, "INCLINATION": 86.382, "RA_OF_ASC_NODE": 22.9563, "ARG_OF_PERICENTER": 320.5028, "MEAN_ANOMALY": 106.9183, "EPHEMERIS_TYPE": 0, "CLASSIFICATION_TYPE": "U", "NORAD_CAT_ID": 33860, "ELEMENT_SET_NO": 999, "REV_AT_EPOCH": 88864, "BSTAR": 0.0011851426, "MEAN_MOTION_DOT": 6.735e-05, "MEAN_MOTION_DDOT": 0}, "tle": {"line1": "1 33860U 97051AD  25356.41157618  .00006735  00000+0  11851-2 0  9994", "line2": "2 33860  86.3820  22.9563 0006265 320.5028 106.9183 14.67476577888641"}}, "geometry": {"type": "Point", "coordinates": [23.798235823057134, 16.57662281083123]}}, {"type": "Feature", "properties": {"norad_id": 33862, "name": "IRIDIUM 33 DEB", "group": "iridium-33-debris", "lat": 49.23049909066539, "lon": -151.14982221160096, "alt_km": 661.3877164810883, "timestamp": "2025-12-22T22:44:21.363333+00:00", "meta": {"OBJECT_NAME": "IRIDIUM 33 DEB", "OBJECT_ID": "1997-051AF", "EPOCH": "2025-12-22T12:52:54.283296", "MEAN_MOTION": 14.69620886, "ECCENTRICITY": 0.00524276, "INCLINATION": 86.4077, "RA_OF_ASC_NODE": 33.2095, "ARG_OF_PERICENTER": 36.2617, "MEAN_ANOMALY": 82.096, "EPHEMERIS_TYPE": 0, "CLASSIFICATION_TYPE": "U", "NORAD_CAT_ID": 33862, "ELEMENT_SET_NO": 999, "REV_AT_EPOCH": 88967, "BSTAR": 0.0015539154, "MEAN_MOTION_DOT": 9.461e-05, "MEAN_MOTION_DDOT": 0}, "tle": {"line1": "1 33862U 97051AF  25356.53673939  .00009461  00000+0  15539-2 0  9994", "line2": "2 33862  86.4077  33.2095 0052427  36.2617  82.0960 14.69620886889676"}}, "geometry": {"type": "Point", "coordinates": [-151.14982221160096, 49.23049909066539]}}, {"type": "Feature", "properties": {"norad_id": 33866, "name": "IRIDIUM 33 DEB", "group": "iridium-33-debris", "lat": 9.76317089904423, "lon": 89.35531741636484, "alt_km": 848.6501277244197, "timestamp": "2025-12-22T22:44:21.363344+00:00", "meta": {"OBJECT_NAME": "IRIDIUM 33 DEB", "OBJECT_ID": "1997-051AK", "EPOCH": "2025-12-22T05:58:49.941696", "MEAN_MOTION": 14.25302348, "ECCENTRICITY": 0.01150469, "INCLINATION": 86.3001, "RA_OF_ASC_NODE": 89.0128, "ARG_OF_PERICENTER": 131.2544, "MEAN_ANOMALY": 259.1044, "EPHEMERIS_TYPE": 0, "CLASSIFICATION_TYPE": "U", "NORAD_CAT_ID": 33866, "ELEMENT_SET_NO": 999, "REV_AT_EPOCH": 86946, "BSTAR": 0.00050535562, "MEAN_MOTION_DOT": 1.294e-05, "MEAN_MOTION_DDOT": 0}, "tle": {"line1": "1 33866U 97051AK  25356.24918914  .00001294  00000+0  50536-3 0  9994", "line2": "2 33866  86.3001  89.0128 0115046 131.2544 259.1044 14.25302348869461"}}, "geometry": {"type": "Point", "coordinates": [89.35531741636484, 9.76317089904423]}}]}